CUBEBUG-2 (LO-74)
1 39440U 13066AA  26193.31516960  .00001823  00000-0  17183-3 0  9995
2 39440  97.8909 142.4045 0055986 305.1332  54.4648 14.93955186680741
FUNCUBE-1 (AO-73)
1 39444U 13066AE  26192.91261323  .00003917  00000-0  24262-3 0  9996
2 39444  97.8287 164.8814 0037972 118.2418 242.2652 15.09793381683390
UWE-3
1 39446U 13066AG  26193.41298972  .00001756  00000-0  15387-3 0  9991
2 39446  97.8700 149.6617 0047510 234.2156 125.4645 14.97187827681357
UNISAT-6
1 40012U 14033C   26193.41236756  .00001198  00000-0  13315-3 0  9998
2 40012  97.7904 345.6857 0044408 347.0654  12.9420 14.88359612649916
DUCHIFAT-1
1 40021U 14033M   26192.66620544  .00095138  00000-0  77604-3 0  9994
2 40021  98.0458 255.3713 0001920 269.1618  90.9422 15.70315468659583
LILACSAT-2
1 40908U 15049K   26193.54871554  .00011762  00000-0  19486-3 0  9998
2 40908  97.4630 231.3641 0008248 149.2429 210.9308 15.52293452599683
CAS-2T & KS-1Q
1 41847U 16066G   26193.17326633  .00000623  00000-0  95449-4 0  9991
2 41847  98.3814 268.6236 0342398  53.9111 309.3277 14.44766328508404
FOX-1B (AO-91)
1 43017U 17073E   26193.60594826  .00003412  00000-0  15083-3 0  9994
2 43017  97.4674  60.3031 0148120 240.5020 118.1370 15.13039278469230
FUNCUBE-3 (EO-79)/QB50P1
1 40025U 14033R   26193.52077436  .00005256  00000-0  25721-3 0  9995
2 40025  98.0964 206.4495 0010220 132.7489 227.4606 15.18640557656879
FOX-1A (AO-85)
1 40967U 15058D   26193.43757766  .00001646  00000-0  15569-3 0  9997
2 40967  64.7723 200.5056 0132137  46.8579 314.3491 14.91077888117334
DIWATA-2B (PO-101)
1 43678U 18084H   26193.57698756  .00001302  00000-0  10822-3 0  9995
2 43678  98.1219  30.8969 0012968  92.5451 267.7256 15.00557430420020
ESHAIL-2
1 43700U 18090A   26193.49680678  .00000000  00000-0  00000-0 0  9991
2 43700   0.0283  47.2208 0002193 113.3498 334.4640  1.00269609 27934
ITASAT-1
1 43786U 18099AE  26193.57753642  .00003643  00000-0  17529-3 0  9998
2 43786  97.4019 244.5851 0010762 260.9227  99.0790 15.19362010416769
FOX-1CLIFF (AO-95)
1 43770U 18099N   26193.11057704  .00007092  00000-0  26835-3 0  9999
2 43770  97.4378 253.2714 0007053 252.7613 107.2854 15.27232320417024
JY1SAT (JO-97)
1 43803U 18099AX  26192.68722269  .00009972  00000-0  30109-3 0  9990
2 43803  97.4124 255.6172 0006518 168.9842 191.1545 15.34443331417383
UWE-4
1 43880U 18111E   26193.24905297  .00020464  00000-0  39697-3 0  9997
2 43880  97.5842 122.8225 0005735 206.6658 153.4298 15.47689372414659
CAS-6 (TO-108)
1 44881U 19093C   26193.62317938  .00000632  00000-0  77289-4 0  9995
2 44881  97.7526 265.2339 0013780   9.9275 350.2211 14.86558614355199
DOSAAF-85 (RS-44)
1 44909U 19096E   26193.49209818 -.00000003  00000-0 -65806-4 0  9997
2 44909  82.5240 322.8900 0218555  85.2823 277.3199 12.79748944305581
SALSAT (TUBSAT 22)
1 46495U 20068K   26192.54062004  .00004447  00000-0  15528-3 0  9998
2 46495  97.8855 197.0941 0008823 206.5203 153.5586 15.30139435319080
CAMSAT XW-3 (CAS-9)
1 50466U 21131B   26193.60066030  .00000289  00000-0  10287-3 0  9991
2 50466  98.4986 285.8536 0004743  37.5926 322.5593 14.41380603238770
ROBUSTA 1F (MTCUBE-2)
1 53109U 22080E   26193.24176169 -.00000003  00000-0  00000+0 0  9990
2 53109  70.1417 289.5333 0009038 284.1760  75.7895  6.42583320 93670
UMKA-1 (RS40S)
1 57172U 23091G   26193.55455558  .00003363  00000-0  15409-3 0  9997
2 57172  97.5042 252.1565 0013287  38.2240 321.9935 15.21103175167863
CUBESX-HSE-3 (RS42S)
1 57178U 23091N   26193.58955221  .00008209  00000-0  26918-3 0  9999
2 57178  97.5086 259.5064 0009936  11.3998 348.7467 15.31843845168314
MONITOR-3 (RS58S)
1 57180U 23091Q   26193.54018321  .00006308  00000-0  23095-3 0  9990
2 57180  97.5077 257.1785 0011292  19.0437 341.1223 15.28340128168164
MONITOR-4 (RS57S)
1 57182U 23091S   26193.58329802  .00006434  00000-0  23485-3 0  9998
2 57182  97.5071 257.1945 0011279  19.2011 340.9651 15.28427053168179
MONITOR-2 (RS39S)
1 57184U 23091U   26193.60810715  .00002634  00000-0  12850-3 0  9993
2 57184  97.5063 251.7280 0011636  32.4587 327.7361 15.19139983167819
SVYATOBOR-1 (RS60S)
1 57187U 23091X   26193.61885829  .00005212  00000-0  19912-3 0  9996
2 57187  97.5083 257.5814 0009006  13.7048 346.4433 15.27036593168195
VIZARD-METEO (RS38S)
1 57189U 23091Z   26193.61268718  .00010499  00000-0  29384-3 0  9997
2 57189  97.5087 263.6196 0005885 350.4022   9.7109 15.36821729168592
UTMN-2 (RS27S)
1 57203U 23091AP  26193.59343639  .00008113  00000-0  25956-3 0  9998
2 57203  97.5082 261.1750 0006982 359.9451   0.1789 15.32662504168434
POLYTECH UNIVERSE-3 (RS46S)
1 57191U 23091AB  26193.56599249  .00003078  00000-0  14847-3 0  9993
2 57191  97.5038 251.1903 0016280  46.3755 313.8826 15.19351873167801
